IRIDIUM 8 [+]           
1 24792U 97020A   17071.32813423  .00000048  00000-0  10202-4 0  9995
2 24792  86.4007 359.1832 0002261  82.3344 277.8108 14.34213596 39314
IRIDIUM 7 [+]           
1 24793U 97020B   17071.46132792  .00000219  00000-0  71208-4 0  9997
2 24793  86.4013 359.4055 0002216  83.6859 276.4589 14.34213278 39334
IRIDIUM 6 [+]           
1 24794U 97020C   17071.38514144  .00000164  00000-0  51552-4 0  9993
2 24794  86.4012 359.3701 0002152  83.2701 276.8739 14.34212304 39321
IRIDIUM 5 [+]           
1 24795U 97020D   17071.23954574  .00000205  00000-0  66225-4 0  9992
2 24795  86.4024 359.4437 0002097  85.1296 275.0139 14.34217937 39388
IRIDIUM 4 [-]           
1 24796U 97020E   17071.38325095  .00000133  00000-0  39638-4 0  9997
2 24796  86.4007 358.3832 0002226  86.0578  53.3485 14.35142278 39426
IRIDIUM 914 [-]         
1 24836U 97030A   17071.45069636  .00000084  00000-0  20976-4 0  9997
2 24836  86.3978  15.3633 0003823  79.1129 281.0499 14.38743345 35038
IRIDIUM 12 [+]          
1 24837U 97030B   17071.41754486  .00000108  00000-0  31539-4 0  9992
2 24837  86.3980  30.5363 0002254  86.1565  30.1167 14.34216659 33076
IRIDIUM 10 [+]          
1 24839U 97030D   17071.40395740  .00000096  00000-0  27084-4 0  9993
2 24839  86.3978  30.5222 0002280  85.9522  25.4066 14.34216507 33086
IRIDIUM 13 [+]          
1 24840U 97030E   17071.40137757  .00000098  00000-0  27819-4 0  9995
2 24840  86.3979  30.6613 0002313  89.8876 270.2585 14.34216119 33070
IRIDIUM 16 [-]          
1 24841U 97030F   17071.45999713  .00000104  00000-0  28723-4 0  9992
2 24841  86.4059  30.5143 0001013 169.9548 190.1670 14.36694284 33698
IRIDIUM 911 [-]         
1 24842U 97030G   17071.43512761  .00000131  00000-0  31773-4 0  9994
2 24842  86.4483  31.3660 0016388  57.1732 303.1045 14.44938501 38977
IRIDIUM 15 [+]          
1 24869U 97034A   17071.51251409  .00000033  00000-0  48314-5 0  9996
2 24869  86.3927  62.5132 0002031  85.9427 274.2001 14.34217110 30054
IRIDIUM 17 [-]          
1 24870U 97034B   17071.50369939  .00000098  00000-0  26918-4 0  9991
2 24870  86.3937  60.6850 0002974 125.2969 234.8506 14.35741835 30305
IRIDIUM 920 [-]         
1 24871U 97034C   17071.46967253  .00000103  00000-0  26644-4 0  9993
2 24871  86.3969  47.1106 0009924 305.1027  54.9241 14.39456661 32449
IRIDIUM 18 [+]          
1 24872U 97034D   17071.49350124  .00000031  00000-0  40415-5 0  9993
2 24872  86.3935  62.4915 0002121  88.1896 271.9543 14.34215738 30059
IRIDIUM 921 [-]         
1 24873U 97034E   17071.50196853  .00000846  00000-0  48323-4 0  9992
2 24873  86.3914 111.6997 0008599  30.2056 329.9676 15.11165471 73495
IRIDIUM 26 [-]          
1 24903U 97043A   17071.20718912  .00000118  00000-0  34383-4 0  9992
2 24903  86.3942 295.4097 0001937  87.4474  49.9408 14.35242952 24065
IRIDIUM 25 [+]          
1 24904U 97043B   17071.16264609  .00000099  00000-0  28443-4 0  9995
2 24904  86.3934 296.0011 0001950  84.6804 275.4615 14.34219329 23922
IRIDIUM 46 [+]          
1 24905U 97043C   17071.17530926  .00000035  00000-0  55150-5 0  9991
2 24905  86.3942 295.9562 0001740  81.8472 278.2921 14.34218108 23923
IRIDIUM 23 [+]          
1 24906U 97043D   17071.26530524 -.00000055  00000-0 -26686-4 0  9991
2 24906  86.3948 295.9921 0001982  77.6611  59.4693 14.34219477 23942
IRIDIUM 22 [+]          
1 24907U 97043E   17071.49246338  .00000033  00000-0  48165-5 0  9995
2 24907  86.3945 296.5211 0002044  84.7659 275.3770 14.34218023 23974
DUMMY MASS 1 [-]        
1 24925U 97048A   17070.55040908  .00000085  00000-0  66116-5 0  9994
2 24925  86.3309  88.4452 0008435  42.4294 317.7581 14.85122755 57092
DUMMY MASS 2 [-]        
1 24926U 97048B   17070.64105279  .00000090  00000-0  72525-5 0  9995
2 24926  86.3309  89.5039 0009450  47.2638 312.9380 14.84890906 56956
IRIDIUM 29 [-]          
1 24944U 97051A   17071.23055685  .00000079  00000-0  20961-4 0  9993
2 24944  86.3987 327.4497 0002492  89.1142 271.0339 14.34619992 20537
IRIDIUM 32 [+]          
1 24945U 97051B   17071.31198120  .00000177  00000-0  56146-4 0  9998
2 24945  86.3984 327.6156 0002127  81.8957 278.2480 14.34224277 20531
IRIDIUM 33 [-]          
1 24946U 97051C   17071.29929173  .00000116  00000-0  34761-4 0  9998
2 24946  86.3902 327.3030 0007378 183.7648 176.3493 14.33540933 20151
IRIDIUM 28 [-]          
1 24948U 97051E   17071.30849362  .00000129  00000-0  37931-4 0  9999
2 24948  86.3991 326.7054 0001835  91.1850 268.9557 14.35536712 20688
IRIDIUM 30 [+]          
1 24949U 97051F   17071.30564294 -.00000016  00000-0 -12940-4 0  9998
2 24949  86.4004 327.7351 0001609  85.6393 274.4986 14.34219614 20513
IRIDIUM 31 [+]          
1 24950U 97051G   17071.29929973  .00000175  00000-0  55399-4 0  9996
2 24950  86.3985 327.7141 0002207  86.2131 273.9318 14.34224138 20522
IRIDIUM 19 [+]          
1 24965U 97056A   17071.49310480  .00000189  00000-0  60309-4 0  9998
2 24965  86.4007 359.1255 0002213  84.5825 275.5623 14.34221534 18696
IRIDIUM 35 [+]          
1 24966U 97056B   17071.29644386  .00000173  00000-0  54541-4 0  9996
2 24966  86.4008 359.2021 0002196  83.5760 276.5686 14.34222822 18643
IRIDIUM 36 [-]          
1 24967U 97056C   17071.38660874  .00000128  00000-0  37425-4 0  9999
2 24967  86.4021 358.2985 0002292  88.8195 271.3264 14.35589191 18971
IRIDIUM 37 [+]          
1 24968U 97056D   17071.41070747  .00000175  00000-0  55499-4 0  9991
2 24968  86.4010 359.3381 0002245  83.9244 276.2207 14.34218953 18662
IRIDIUM 34 [+]          
1 24969U 97056E   17071.35989335  .00000171  00000-0  53935-4 0  9996
2 24969  86.4011 359.2961 0002221  85.2383 274.9067 14.34220517 18657
IRIDIUM 43 [+]          
1 25039U 97069A   17071.48713038 -.00000010  00000-0 -10494-4 0  9995
2 25039  86.3932  62.4290 0002269  89.2298 270.9158 14.34216076 12450
IRIDIUM 41 [+]          
1 25040U 97069B   17071.48080576  .00000045  00000-0  91174-5 0  9992
2 25040  86.3934  62.3785 0002076  87.5362 272.6071 14.34215970 12456
IRIDIUM 40 [+]          
1 25041U 97069C   17071.43639330 -.00000011  00000-0 -10983-4 0  9999
2 25041  86.3930  62.6266 0003084  99.5008 260.6536 14.34216524 12460
IRIDIUM 39 [B]          
1 25042U 97069D   17071.42235220  .00000135  00000-0  32268-4 0  9994
2 25042  86.3895  60.4914 0016787 275.5011  84.4276 14.46134715 12738
IRIDIUM 38 [-]          
1 25043U 97069E   17071.50365350  .00000089  00000-0  23982-4 0  9993
2 25043  86.3937  59.6663 0001230 125.2509 234.8803 14.36014261 12859
IRIDIUM 42 [-]          
1 25077U 97077A   17071.51097723  .00000104  00000-0  29913-4 0  9994
2 25077  86.3937  62.3304 0002010  89.8303 270.3123 14.34531013  8338
IRIDIUM 44 [-]          
1 25078U 97077B   17071.49962780  .00000088  00000-0  22456-4 0  9992
2 25078  86.3949  52.1458 0001551 138.8101 221.3214 14.38103571  9739
IRIDIUM 45 [+]          
1 25104U 97082A   17071.29294601  .00000276  00000-0  91358-4 0  9992
2 25104  86.3982 327.7501 0001085  87.7164 272.4156 14.34217610  6486
IRIDIUM 24 [-]          
1 25105U 97082B   17071.51333262  .00000112  00000-0  29392-4 0  9993
2 25105  86.3885 276.2819 0009984 310.4547  49.5781 14.39840211  8940
IRIDIUM 47 [+]          
1 25106U 97082C   17071.18167775  .00000045  00000-0  91402-5 0  9998
2 25106  86.3931 295.8672 0002034  81.5892 278.5534 14.34223516  6468
IRIDIUM 49 [+]          
1 25108U 97082E   17071.22122955  .00000114  00000-0  33722-4 0  9993
2 25108  86.3933 295.9507 0002019  83.4829  55.3306 14.34218866  6475
IRIDIUM 52 [+]          
1 25169U 98010A   17071.43311206  .00000096  00000-0  27264-4 0  9997
2 25169  86.3983  30.8218 0002269  87.6520 272.4936 14.34216570997912
IRIDIUM 56 [+]          
1 25170U 98010B   17071.42686618  .00000118  00000-0  35148-4 0  9995
2 25170  86.3986  30.9228 0002050  85.8723 274.2707 14.34216553997896
IRIDIUM 54 [+]          
1 25171U 98010C   17071.45847683  .00000100  00000-0  28486-4 0  9998
2 25171  86.3984  30.8316 0002272  87.3604 272.7852 14.34216615998066
IRIDIUM 50 [+]          
1 25172U 98010D   17071.42040090  .00000101  00000-0  29128-4 0  9998
2 25172  86.3983  30.8043 0002340  85.8923 274.2540 14.34216831997897
IRIDIUM 53 [+]          
1 25173U 98010E   17071.43946816  .00000100  00000-0  28549-4 0  9996
2 25173  86.3984  30.8021 0002266  87.1004 273.0451 14.34217514997906
IRIDIUM 51 [S]          
1 25262U 98018A   17071.38539582  .00000194  00000-0  62364-4 0  9991
2 25262  86.4038 359.4813 0002468  76.8622 283.2849 14.34223946997281
IRIDIUM 61 [+]          
1 25263U 98018B   17071.48686997  .00000176  00000-0  55700-4 0  9992
2 25263  86.4010 359.2717 0002197  83.0487 277.0959 14.34219701993004
IRIDIUM 55 [+]          
1 25272U 98019A   17071.21050339  .00000169  00000-0  53339-4 0  9997
2 25272  86.3983 327.5668 0002098  82.3805 277.7629 14.34223990992163
IRIDIUM 57 [-]          
1 25273U 98019B   17071.32022844  .00000085  00000-0  23279-4 0  9997
2 25273  86.3991 327.8255 0002265  86.5643 273.5812 14.34259618992186
IRIDIUM 58 [+]          
1 25274U 98019C   17071.26124410  .00000172  00000-0  54266-4 0  9990
2 25274  86.3991 328.0437 0002082  80.4587 279.6844 14.34222198992173
IRIDIUM 59 [+]          
1 25275U 98019D   17071.26758585  .00000176  00000-0  55796-4 0  9990
2 25275  86.3986 327.8993 0002224  81.5068 278.6380 14.34223204992179
IRIDIUM 60 [+]          
1 25276U 98019E   17071.34369668  .00000168  00000-0  53070-4 0  9994
2 25276  86.3982 327.4910 0002093  83.0158 277.1276 14.34223796992187
IRIDIUM 62 [+]          
1 25285U 98021A   17071.51442499  .00000022  00000-0  85466-6 0  9995
2 25285  86.3917 264.3038 0002017  87.2524 272.8903 14.34216183991162
IRIDIUM 63 [-]          
1 25286U 98021B   17071.48779090  .00000140  00000-0  42687-4 0  9999
2 25286  86.3947 264.7197 0002324  87.1531 331.5497 14.34645977991184
